NORAD_CAT_ID,OBJECT_NAME,OBJECT_TYPE,EPOCH,MEAN_MOTION,ECCENTRICITY,INCLINATION,RA_OF_ASC_NODE,ARG_OF_PERICENTER,MEAN_ANOMALY,BSTAR,MEAN_MOTION_DOT,MEAN_MOTION_DDOT,TLE_LINE0,TLE_LINE1,TLE_LINE2,SEMIMAJOR_AXIS,PERIOD,APOGEE,PERIGEE,DECAYED
50172.0,STARLINK-3287,PAYLOAD,2022-04-22 14:00:01,15.08833097,0.000262,53.2158,130.762,28.8586,123.8626,0.00080356,0.00012522,0.0,0 STARLINK-3287,1 50172U 21125S   22112.58334491  .00012522  00000-0  80356-3 0  9998,2 50172  53.2158 130.7620 0002620  28.8586 123.8626 15.08833097  3608,6917.901,95.438,541.5790000000002,537.9540000000002,0.0
50172.0,STARLINK-3287,PAYLOAD,2022-04-22 22:00:00,15.0882141,0.0002397,53.2158,129.264,32.4334,131.8894,0.0027085,0.0004306,0.0,0 STARLINK-3287,1 50172U 21125S   22112.91667824  .00043060  00000-0  27085-2 0  9994,2 50172  53.2158 129.2640 0002397  32.4334 131.8894 15.08821410 22238,6917.937,95.439,541.46,538.144,0.0
50172.0,STARLINK-3287,PAYLOAD,2022-04-23 14:00:01,15.08863569,0.0002628999999999,53.2156,126.2729,30.1966,157.3158,-0.0027005,-0.00043041,0.0,0 STARLINK-3287,1 50172U 21125S   22113.58334491 -.00043041  00000-0 -27005-2 0  9992,2 50172  53.2156 126.2729 0002629  30.1966 157.3158 15.08863569 22333,6917.808000000001,95.436,541.492,537.855,0.0
50172.0,STARLINK-3287,PAYLOAD,2022-04-24 06:00:00,15.08840145,0.0002593,53.2158,123.2801,32.3166,178.3848,-0.001077,-0.00017389,0.0,0 STARLINK-3287,1 50172U 21125S   22114.25001157 -.00017389  00000-0 -10770-2 0  9994,2 50172  53.2158 123.2801 0002593  32.3166 178.3848 15.08840145 22434,6917.88,95.438,541.539,537.951,0.0
50172.0,STARLINK-3287,PAYLOAD,2022-04-24 14:00:01,15.08842966,0.0002677,53.2156,121.7838,30.6951,191.5895,-0.00038642,-6.434e-05,0.0,0 STARLINK-3287,1 50172U 21125S   22114.58334491 -.00006434  00000-0 -38642-3 0  9998,2 50172  53.2156 121.7838 0002677  30.6951 191.5895 15.08842966  3599,6917.871,95.437,541.5880000000002,537.884,0.0
50172.0,STARLINK-3287,PAYLOAD,2022-04-24 22:00:00,15.08835702,0.0002486,53.2157,120.2857,33.8587,200.0289,0.00037417,5.671e-05,0.0,0 STARLINK-3287,1 50172U 21125S   22114.91667824  .00005671  00000-0  37417-3 0  9993,2 50172  53.2157 120.2857 0002486  33.8587 200.0289 15.08835702 22531,6917.894,95.438,541.4780000000002,538.039,0.0
50172.0,STARLINK-3287,PAYLOAD,2022-04-25 14:00:01,15.08834878,0.0002712,53.2157,117.2945,30.5871,226.4644,-0.00098357,-0.00015907,0.0,0 STARLINK-3287,1 50172U 21125S   22115.58334491 -.00015907  00000-0 -98357-3 0  9993,2 50172  53.2157 117.2945 0002712  30.5871 226.4644 15.08834878 22638,6917.896,95.438,541.637,537.885,0.0
50172.0,STARLINK-3287,PAYLOAD,2022-04-25 22:00:00,15.08812276,0.0002568,53.2159,115.7964,34.5671,234.0754,0.0027828,0.00044246,0.0,0 STARLINK-3287,1 50172U 21125S   22115.91667824  .00044246  00000-0  27828-2 0  9999,2 50172  53.2159 115.7964 0002568  34.5671 234.0754 15.08812276  3606,6917.965,95.439,541.607,538.054,0.0
50172.0,STARLINK-3287,PAYLOAD,2022-04-26 06:00:00,15.08843996,0.0002773,53.216,114.3016,33.8974,246.331,-0.00059385,-9.729e-05,0.0,0 STARLINK-3287,1 50172U 21125S   22116.25001157 -.00009729  00000-0 -59385-3 0  9991,2 50172  53.2160 114.3016 0002773  33.8974 246.3310 15.08843996 22739,6917.868,95.437,541.651,537.815,0.0
50172.0,STARLINK-3287,PAYLOAD,2022-04-26 14:00:01,15.08860309,0.0002781,53.216,112.805,32.7003,259.1802,-0.0013878,-0.00022321,0.0,0 STARLINK-3287,1 50172U 21125S   22116.58335648 -.00022321  00000-0 -13878-2 0  9991,2 50172  53.2160 112.8050 0002781  32.7003 259.1802 15.08860309  3598,6917.818,95.436,541.607,537.759,0.0
50172.0,STARLINK-3287,PAYLOAD,2022-04-26 22:00:00,15.08838988,0.0002594,53.2162,111.3069,35.9171,267.5157,7.8674e-07,-2.76e-06,0.0,0 STARLINK-3287,1 50172U 21125S   22116.91667824 -.00000276  00000-0  78674-6 0  9995,2 50172  53.2162 111.3069 0002594  35.9171 267.5157 15.08838988  3579,6917.8830000000025,95.438,541.543,537.9540000000002,0.0
50172.0,STARLINK-3287,PAYLOAD,2022-04-27 06:00:00,15.0883661,0.0002792,53.2163,109.8123,33.9415,281.0869,-0.00044425,-7.352e-05,0.0,0 STARLINK-3287,1 50172U 21125S   22117.25001157 -.00007352  00000-0 -44425-3 0  9991,2 50172  53.2163 109.8123 0002792  33.9415 281.0869 15.08836610 22888,6917.891,95.438,541.687,537.8240000000002,0.0
50172.0,STARLINK-3287,PAYLOAD,2022-04-27 14:00:01,15.08852745,0.0002778,53.2161,108.3154,33.0944,293.5754,-0.0017024,-0.00027291,0.0,0 STARLINK-3287,1 50172U 21125S   22117.58335648 -.00027291  00000-0 -17024-2 0  9990,2 50172  53.2161 108.3154 0002778  33.0944 293.5754 15.08852745  3603,6917.840999999999,95.437,541.628,537.785,0.0
50172.0,STARLINK-3287,PAYLOAD,2022-04-28 06:00:00,15.08836021,0.0002755,53.2165,105.3229,34.0862,315.7325,-0.00050463,-8.31e-05,0.0,0 STARLINK-3287,1 50172U 21125S   22118.25001157 -.00008310  00000-0 -50463-3 0  9996,2 50172  53.2165 105.3229 0002755  34.0862 315.7325 15.08836021 23031,6917.893,95.438,541.663,537.852,0.0
50172.0,STARLINK-3287,PAYLOAD,2022-04-28 14:00:01,15.08855357,0.0002712,53.2162,103.8259,33.6528,327.7486,-0.0015417,-0.00024753,0.0,0 STARLINK-3287,1 50172U 21125S   22118.58334491 -.00024753  00000-0 -15417-2 0  9990,2 50172  53.2162 103.8259 0002712  33.6528 327.7486 15.08855357  3606,6917.833000000001,95.437,541.575,537.822,0.0
50172.0,STARLINK-3287,PAYLOAD,2022-04-28 22:00:01,15.08845828,0.000251,53.2166,102.3283,37.207,335.8623,0.0010479,0.00016432,0.0,0 STARLINK-3287,1 50172U 21125S   22118.91668981  .00016432  00000-0  10479-2 0  9997,2 50172  53.2166 102.3283 0002510  37.2070 335.8623 15.08845828 23134,6917.863,95.437,541.464,537.991,0.0
50172.0,STARLINK-3287,PAYLOAD,2022-04-29 14:00:01,15.08861309,0.0002606,53.2161,99.3365,33.649,2.5562,-0.0023158,-0.00036979,0.0,0 STARLINK-3287,1 50172U 21125S   22119.58334491 -.00036979  00000-0 -23158-2 0  9995,2 50172  53.2161  99.3365 0002606  33.6490   2.5562 15.08861309 23241,6917.815,95.436,541.4830000000002,537.877,0.0
50172.0,STARLINK-3287,PAYLOAD,2022-04-29 22:00:00,15.08811766,0.0002355,53.2164,97.8392,38.3093,9.444,0.0022943,0.00036387,0.0,0 STARLINK-3287,1 50172U 21125S   22119.91667824  .00036387  00000-0  22943-2 0  9993,2 50172  53.2164  97.8392 0002355  38.3093   9.4440 15.08811766 23297,6917.967,95.439,541.461,538.203,0.0
50172.0,STARLINK-3287,PAYLOAD,2022-04-30 14:00:01,15.08850261,0.0002505,53.216,94.8473,36.2149,34.7449,-0.001503,-0.00024137,0.0,0 STARLINK-3287,1 50172U 21125S   22120.58334491 -.00024137  00000-0 -15030-2 0  9990,2 50172  53.2160  94.8473 0002505  36.2149  34.7449 15.08850261  3589,6917.849,95.437,541.447,537.981,0.0
50172.0,STARLINK-3287,PAYLOAD,2022-04-30 22:00:00,15.08853753,0.0002371,53.2163,93.3502,39.6666,42.8923,-0.0010357,-0.00016741,0.0,0 STARLINK-3287,1 50172U 21125S   22120.91667824 -.00016741  00000-0 -10357-2 0  9995,2 50172  53.2163  93.3502 0002371  39.6666  42.8923 15.08853753 23444,6917.8380000000025,95.437,541.344,538.063,0.0
50172.0,STARLINK-3287,PAYLOAD,2022-05-01 14:00:01,15.08857038,0.0002449,53.2162,90.3583,35.715,70.0252,-0.0033591,-0.0005338,0.0,0 STARLINK-3287,1 50172U 21125S   22121.58334491 -.00053380  00000-0 -33591-2 0  9995,2 50172  53.2162  90.3583 0002449  35.7150  70.0252 15.08857038  3581,6917.828,95.436,541.387,537.999,0.0
50172.0,STARLINK-3287,PAYLOAD,2022-05-01 22:00:01,15.08819102,0.0002331,53.2165,88.861,38.7211,78.6762,0.00085842,0.00013392,0.0,0 STARLINK-3287,1 50172U 21125S   22121.91668981  .00013392  00000-0  85842-3 0  9990,2 50172  53.2165  88.8610 0002331  38.7211  78.6762 15.08819102 23591,6917.944,95.439,541.422,538.197,0.0
50172.0,STARLINK-3287,PAYLOAD,2022-05-02 14:00:01,15.08842098,0.0002473,53.2166,85.8693,36.2778,104.2004,-0.0013522,-0.00021746,0.0,0 STARLINK-3287,1 50172U 21125S   22122.58334491 -.00021746  00000-0 -13522-2 0  9999,2 50172  53.2166  85.8693 0002473  36.2778 104.2004 15.08842098  3603,6917.874,95.437,541.45,538.028,0.0
50172.0,STARLINK-3287,PAYLOAD,2022-05-02 22:00:01,15.08839532,0.0002438,53.2171,84.3724,40.3305,111.7948,0.00082513,0.00012868,0.0,0 STARLINK-3287,1 50172U 21125S   22122.91668981  .00012868  00000-0  82513-3 0  9990,2 50172  53.2171  84.3724 0002438  40.3305 111.7948 15.08839532 23747,6917.882,95.438,541.433,538.06,0.0
50172.0,STARLINK-3287,PAYLOAD,2022-05-03 14:00:01,15.08870649,0.0002506,53.2173,81.3803,37.3665,137.8957,-0.0041354999999999,-0.00065565,0.0,0 STARLINK-3287,1 50172U 21125S   22123.58334491 -.00065565  00000-0 -41355-2 0  9992,2 50172  53.2173  81.3803 0002506  37.3665 137.8957 15.08870649  3601,6917.7869999999975,95.436,541.385,537.918,0.0
50172.0,STARLINK-3287,PAYLOAD,2022-05-03 22:00:00,15.08840422,0.0002449,53.2178,79.8837,40.1431,146.7219,0.00061713,9.547e-05,0.0,0 STARLINK-3287,1 50172U 21125S   22123.91667824  .00009547  00000-0  61713-3 0  9995,2 50172  53.2178  79.8837 0002449  40.1431 146.7219 15.08840422 23893,6917.879,95.438,541.438,538.05,0.0
50172.0,STARLINK-3287,PAYLOAD,2022-05-04 14:00:01,15.08857575,0.0002473,53.2179,76.8914,37.2479,172.8187,-0.0027835,-0.00044339,0.0,0 STARLINK-3287,1 50172U 21125S   22124.58334491 -.00044339  00000-0 -27835-2 0  9996,2 50172  53.2179  76.8914 0002473  37.2479 172.8187 15.08857575  3601,6917.8269999999975,95.436,541.4019999999998,537.981,0.0
50172.0,STARLINK-3287,PAYLOAD,2022-05-04 20:00:01,15.0882717,0.0002404,53.2182,75.7685,40.2439,88.5893,0.0023495,0.0003729,0.0,0 STARLINK-3287,1 50172U 21125S   22124.83335648  .00037290  00000-0  23495-2 0  9993,2 50172  53.2182  75.7685 0002404  40.2439  88.5893 15.08827170 24037,6917.92,95.438,541.448,538.122,0.0
50172.0,STARLINK-3287,PAYLOAD,2022-05-04 22:00:01,15.08846841,0.0002421,53.2184,75.3949,40.2081,181.5168,0.00042769,6.526e-05,0.0,0 STARLINK-3287,1 50172U 21125S   22124.91668981  .00006526  00000-0  42769-3 0  9995,2 50172  53.2184  75.3949 0002421  40.2081 181.5168 15.08846841  3605,6917.859,95.437,541.399,538.05,0.0
